IRIDIUM 7               
1 24793U 97020B   25221.27676959  .00000331  00000+0  10715-3 0  9999
2 24793  86.4018 154.6861 0002011  80.0930 280.0494 14.35971504479511
IRIDIUM 5               
1 24795U 97020D   25222.14070770  .00003396  00000+0  27711-3 0  9995
2 24795  86.3842  58.8311 0106033 305.4291  53.7071 14.94730017493558
IRIDIUM 4               
1 24796U 97020E   25221.22692228  .00000313  00000+0  99317-4 0  9990
2 24796  86.4015 151.5527 0002226  82.0313 278.1137 14.36872286480085
IRIDIUM 914             
1 24836U 97030A   25222.12330104  .00000444  00000+0  13224-3 0  9995
2 24836  86.3995 159.6113 0003589  67.7599 292.3981 14.40910728476994
IRIDIUM 16              
1 24841U 97030F   25221.19045366  .00000332  00000+0  10160-3 0  9992
2 24841  86.4079 183.0216 0000609 162.7296 197.3923 14.38745745474629
IRIDIUM 911             
1 24842U 97030G   25222.16921825  .00000570  00000+0  14893-3 0  9995
2 24842  86.4506 181.3236 0011885 279.9591  80.0271 14.47689789482870
IRIDIUM 17              
1 24870U 97034B   25221.48865917  .00000427  00000+0  13526-3 0  9996
2 24870  86.3956 212.3396 0002255 132.0656 228.0734 14.37862955471247
IRIDIUM 920             
1 24871U 97034C   25221.46392016  .00000408  00000+0  11953-3 0  9991
2 24871  86.4009 191.4734 0009264 265.6866  94.3275 14.41570027474253
